[
  {
    "COMMENT": "GENERATED VIA SPACETRACK.ORG API",
    "ORIGINATOR": "18 SPCS",
    "NORAD_CAT_ID": "27386",
    "OBJECT_NAME": "ENVISAT",
    "OBJECT_TYPE": "PAYLOAD",
    "CLASSIFICATION_TYPE": "U",
    "INTLDES": "02009A",
    "EPOCH": "2023-06-04 13:32:26",
    "EPOCH_MICROSECONDS": "168928",
    "MEAN_MOTION": "14.38352289",
    "ECCENTRICITY": "0.0001304",
    "INCLINATION": "98.23",
    "RA_OF_ASC_NODE": "126.0855",
    "ARG_OF_PERICENTER": "90.17",
    "MEAN_ANOMALY": "25.1649",
    "EPHEMERIS_TYPE": "0",
    "ELEMENT_SET_NO": "999",
    "REV_AT_EPOCH": "11407",
    "BSTAR": "0.000081287",
    "MEAN_MOTION_DOT": "0.00000206",
    "MEAN_MOTION_DDOT": "0",
    "FILE": "3924842",
    "TLE_LINE0": "0 ENVISAT",
    "TLE_LINE1": "1 27386U 02009A   23155.56419177  .00000206  00000-0  81287-4 0  9991",
    "TLE_LINE2": "2 27386  98.2300 126.0855 0001304  90.1700  25.1649 14.38352289114077",
    "OBJECT_ID": "2002-009A",
    "OBJECT_NUMBER": "27386",
    "SEMIMAJOR_AXIS": "7142.085",
    "PERIOD": "100.115",
    "APOGEE": "764.881",
    "PERIGEE": "763.018",
    "DECAYED": "0"
  },
  {
    "COMMENT": "GENERATED VIA SPACETRACK.ORG API",
    "ORIGINATOR": "18 SPCS",
    "NORAD_CAT_ID": "27386",
    "OBJECT_NAME": "ENVISAT",
    "OBJECT_TYPE": "PAYLOAD",
    "CLASSIFICATION_TYPE": "U",
    "INTLDES": "02009A",
    "EPOCH": "2023-06-04 19:57:34",
    "EPOCH_MICROSECONDS": "437312",
    "MEAN_MOTION": "14.38352443",
    "ECCENTRICITY": "0.0001291",
    "INCLINATION": "98.23",
    "RA_OF_ASC_NODE": "126.342",
    "ARG_OF_PERICENTER": "89.8885",
    "MEAN_ANOMALY": "329.5516",
    "EPHEMERIS_TYPE": "0",
    "ELEMENT_SET_NO": "999",
    "REV_AT_EPOCH": "11418",
    "BSTAR": "0.000081361",
    "MEAN_MOTION_DOT": "0.00000206",
    "MEAN_MOTION_DDOT": "0",
    "FILE": "3925030",
    "TLE_LINE0": "0 ENVISAT",
    "TLE_LINE1": "1 27386U 02009A   23155.83164858  .00000206  00000-0  81361-4 0  9997",
    "TLE_LINE2": "2 27386  98.2300 126.3420 0001291  89.8885 329.5516 14.38352443114180",
    "OBJECT_ID": "2002-009A",
    "OBJECT_NUMBER": "27386",
    "SEMIMAJOR_AXIS": "7142.084",
    "PERIOD": "100.115",
    "APOGEE": "764.871",
    "PERIGEE": "763.027",
    "DECAYED": "0"
  },
  {
    "COMMENT": "GENERATED VIA SPACETRACK.ORG API",
    "ORIGINATOR": "18 SPCS",
    "NORAD_CAT_ID": "27386",
    "OBJECT_NAME": "ENVISAT",
    "OBJECT_TYPE": "PAYLOAD",
    "CLASSIFICATION_TYPE": "U",
    "INTLDES": "02009A",
    "EPOCH": "2023-06-04 21:36:15",
    "EPOCH_MICROSECONDS": "333408",
    "MEAN_MOTION": "14.3835251",
    "ECCENTRICITY": "0.0001291",
    "INCLINATION": "98.23",
    "RA_OF_ASC_NODE": "126.4077",
    "ARG_OF_PERICENTER": "89.8521",
    "MEAN_ANOMALY": "324.2293",
    "EPHEMERIS_TYPE": "0",
    "ELEMENT_SET_NO": "999",
    "REV_AT_EPOCH": "11412",
    "BSTAR": "0.000082334",
    "MEAN_MOTION_DOT": "0.00000209",
    "MEAN_MOTION_DDOT": "0",
    "FILE": "3925173",
    "TLE_LINE0": "0 ENVISAT",
    "TLE_LINE1": "1 27386U 02009A   23155.90017747  .00000209  00000-0  82334-4 0  9993",
    "TLE_LINE2": "2 27386  98.2300 126.4077 0001291  89.8521 324.2293 14.38352510114129",
    "OBJECT_ID": "2002-009A",
    "OBJECT_NUMBER": "27386",
    "SEMIMAJOR_AXIS": "7142.084",
    "PERIOD": "100.115",
    "APOGEE": "764.871",
    "PERIGEE": "763.027",
    "DECAYED": "0"
  },
  {
    "COMMENT": "GENERATED VIA SPACETRACK.ORG API",
    "ORIGINATOR": "18 SPCS",
    "NORAD_CAT_ID": "27386",
    "OBJECT_NAME": "ENVISAT",
    "OBJECT_TYPE": "PAYLOAD",
    "CLASSIFICATION_TYPE": "U",
    "INTLDES": "02009A",
    "EPOCH": "2023-06-05 04:04:48",
    "EPOCH_MICROSECONDS": "442368",
    "MEAN_MOTION": "14.38352636",
    "ECCENTRICITY": "0.0001296",
    "INCLINATION": "98.23",
    "RA_OF_ASC_NODE": "126.6664",
    "ARG_OF_PERICENTER": "89.9959",
    "MEAN_ANOMALY": "280.46",
    "EPHEMERIS_TYPE": "0",
    "ELEMENT_SET_NO": "999",
    "REV_AT_EPOCH": "11423",
    "BSTAR": "0.000081693",
    "MEAN_MOTION_DOT": "0.00000207",
    "MEAN_MOTION_DDOT": "0",
    "FILE": "3925331",
    "TLE_LINE0": "0 ENVISAT",
    "TLE_LINE1": "1 27386U 02009A   23156.17000512  .00000207  00000-0  81693-4 0  9990",
    "TLE_LINE2": "2 27386  98.2300 126.6664 0001296  89.9959 280.4600 14.38352636114230",
    "OBJECT_ID": "2002-009A",
    "OBJECT_NUMBER": "27386",
    "SEMIMAJOR_AXIS": "7142.084",
    "PERIOD": "100.115",
    "APOGEE": "764.874",
    "PERIGEE": "763.023",
    "DECAYED": "0"
  },
  {
    "COMMENT": "GENERATED VIA SPACETRACK.ORG API",
    "ORIGINATOR": "18 SPCS",
    "NORAD_CAT_ID": "27386",
    "OBJECT_NAME": "ENVISAT",
    "OBJECT_TYPE": "PAYLOAD",
    "CLASSIFICATION_TYPE": "U",
    "INTLDES": "02009A",
    "EPOCH": "2023-06-05 11:13:27",
    "EPOCH_MICROSECONDS": "444000",
    "MEAN_MOTION": "14.38352774",
    "ECCENTRICITY": "0.0001293",
    "INCLINATION": "98.23",
    "RA_OF_ASC_NODE": "126.9518",
    "ARG_OF_PERICENTER": "89.7487",
    "MEAN_ANOMALY": "21.1864",
    "EPHEMERIS_TYPE": "0",
    "ELEMENT_SET_NO": "999",
    "REV_AT_EPOCH": "11427",
    "BSTAR": "0.000079919",
    "MEAN_MOTION_DOT": "0.00000202",
    "MEAN_MOTION_DDOT": "0",
    "FILE": "3925531",
    "TLE_LINE0": "0 ENVISAT",
    "TLE_LINE1": "1 27386U 02009A   23156.46767875  .00000202  00000-0  79919-4 0  9997",
    "TLE_LINE2": "2 27386  98.2300 126.9518 0001293  89.7487  21.1864 14.38352774114271",
    "OBJECT_ID": "2002-009A",
    "OBJECT_NUMBER": "27386",
    "SEMIMAJOR_AXIS": "7142.083",
    "PERIOD": "100.115",
    "APOGEE": "764.872",
    "PERIGEE": "763.025",
    "DECAYED": "0"
  },
  {
    "COMMENT": "GENERATED VIA SPACETRACK.ORG API",
    "ORIGINATOR": "18 SPCS",
    "NORAD_CAT_ID": "27386",
    "OBJECT_NAME": "ENVISAT",
    "OBJECT_TYPE": "PAYLOAD",
    "CLASSIFICATION_TYPE": "U",
    "INTLDES": "02009A",
    "EPOCH": "2023-06-05 12:53:13",
    "EPOCH_MICROSECONDS": "902144",
    "MEAN_MOTION": "14.38352857",
    "ECCENTRICITY": "0.0001292",
    "INCLINATION": "98.23",
    "RA_OF_ASC_NODE": "127.0183",
    "ARG_OF_PERICENTER": "89.6501",
    "MEAN_ANOMALY": "19.8532",
    "EPHEMERIS_TYPE": "0",
    "ELEMENT_SET_NO": "999",
    "REV_AT_EPOCH": "11421",
    "BSTAR": "0.000083475",
    "MEAN_MOTION_DOT": "0.00000213",
    "MEAN_MOTION_DDOT": "0",
    "FILE": "3925691",
    "TLE_LINE0": "0 ENVISAT",
    "TLE_LINE1": "1 27386U 02009A   23156.53696646  .00000213  00000-0  83475-4 0  9996",
    "TLE_LINE2": "2 27386  98.2300 127.0183 0001292  89.6501  19.8532 14.38352857114218",
    "OBJECT_ID": "2002-009A",
    "OBJECT_NUMBER": "27386",
    "SEMIMAJOR_AXIS": "7142.083",
    "PERIOD": "100.115",
    "APOGEE": "764.871",
    "PERIGEE": "763.025",
    "DECAYED": "0"
  },
  {
    "COMMENT": "GENERATED VIA SPACETRACK.ORG API",
    "ORIGINATOR": "18 SPCS",
    "NORAD_CAT_ID": "27386",
    "OBJECT_NAME": "ENVISAT",
    "OBJECT_TYPE": "PAYLOAD",
    "CLASSIFICATION_TYPE": "U",
    "INTLDES": "02009A",
    "EPOCH": "2023-06-05 22:28:41",
    "EPOCH_MICROSECONDS": "697408",
    "MEAN_MOTION": "14.38353103",
    "ECCENTRICITY": "0.0001295",
    "INCLINATION": "98.23",
    "RA_OF_ASC_NODE": "127.4014",
    "ARG_OF_PERICENTER": "89.8457",
    "MEAN_ANOMALY": "287.7535",
    "EPHEMERIS_TYPE": "0",
    "ELEMENT_SET_NO": "999",
    "REV_AT_EPOCH": "11427",
    "BSTAR": "0.000084704",
    "MEAN_MOTION_DOT": "0.00000217",
    "MEAN_MOTION_DDOT": "0",
    "FILE": "3925751",
    "TLE_LINE0": "0 ENVISAT",
    "TLE_LINE1": "1 27386U 02009A   23156.93659372  .00000217  00000-0  84704-4 0  9995",
    "TLE_LINE2": "2 27386  98.2300 127.4014 0001295  89.8457 287.7535 14.38353103114270",
    "OBJECT_ID": "2002-009A",
    "OBJECT_NUMBER": "27386",
    "SEMIMAJOR_AXIS": "7142.082",
    "PERIOD": "100.114",
    "APOGEE": "764.872",
    "PERIGEE": "763.022",
    "DECAYED": "0"
  },
  {
    "COMMENT": "GENERATED VIA SPACETRACK.ORG API",
    "ORIGINATOR": "18 SPCS",
    "NORAD_CAT_ID": "27386",
    "OBJECT_NAME": "ENVISAT",
    "OBJECT_TYPE": "PAYLOAD",
    "CLASSIFICATION_TYPE": "U",
    "INTLDES": "02009A",
    "EPOCH": "2023-06-05 22:28:41",
    "EPOCH_MICROSECONDS": "697408",
    "MEAN_MOTION": "14.38353103",
    "ECCENTRICITY": "0.0001295",
    "INCLINATION": "98.23",
    "RA_OF_ASC_NODE": "127.4014",
    "ARG_OF_PERICENTER": "89.8457",
    "MEAN_ANOMALY": "287.7535",
    "EPHEMERIS_TYPE": "0",
    "ELEMENT_SET_NO": "999",
    "REV_AT_EPOCH": "11434",
    "BSTAR": "0.000084704",
    "MEAN_MOTION_DOT": "0.00000217",
    "MEAN_MOTION_DDOT": "0",
    "FILE": "3925910",
    "TLE_LINE0": "0 ENVISAT",
    "TLE_LINE1": "1 27386U 02009A   23156.93659372  .00000217  00000-0  84704-4 0  9995",
    "TLE_LINE2": "2 27386  98.2300 127.4014 0001295  89.8457 287.7535 14.38353103114348",
    "OBJECT_ID": "2002-009A",
    "OBJECT_NUMBER": "27386",
    "SEMIMAJOR_AXIS": "7142.082",
    "PERIOD": "100.114",
    "APOGEE": "764.872",
    "PERIGEE": "763.022",
    "DECAYED": "0"
  },
  {
    "COMMENT": "GENERATED VIA SPACETRACK.ORG API",
    "ORIGINATOR": "18 SPCS",
    "NORAD_CAT_ID": "27386",
    "OBJECT_NAME": "ENVISAT",
    "OBJECT_TYPE": "PAYLOAD",
    "CLASSIFICATION_TYPE": "U",
    "INTLDES": "02009A",
    "EPOCH": "2023-06-06 09:06:20",
    "EPOCH_MICROSECONDS": "556576",
    "MEAN_MOTION": "14.38353371",
    "ECCENTRICITY": "0.0001295",
    "INCLINATION": "98.2301",
    "RA_OF_ASC_NODE": "127.826",
    "ARG_OF_PERICENTER": "89.6755",
    "MEAN_ANOMALY": "59.4978",
    "EPHEMERIS_TYPE": "0",
    "ELEMENT_SET_NO": "999",
    "REV_AT_EPOCH": "11440",
    "BSTAR": "0.000087009",
    "MEAN_MOTION_DOT": "0.00000224",
    "MEAN_MOTION_DDOT": "0",
    "FILE": "3926111",
    "TLE_LINE0": "0 ENVISAT",
    "TLE_LINE1": "1 27386U 02009A   23157.37940459  .00000224  00000-0  87009-4 0  9992",
    "TLE_LINE2": "2 27386  98.2301 127.8260 0001295  89.6755  59.4978 14.38353371114404",
    "OBJECT_ID": "2002-009A",
    "OBJECT_NUMBER": "27386",
    "SEMIMAJOR_AXIS": "7142.081",
    "PERIOD": "100.114",
    "APOGEE": "764.871",
    "PERIGEE": "763.021",
    "DECAYED": "0"
  }
]